[{"id": 1, "clinicId": 1, "planId": 2, "zipcode": "94342290", "address": "Condomínio de Caldeira", "addressType": "Parque", "addressNumber": 538, "addressComp": "", "neigh": "Vila Independencia 1ª Seção", "city": "Nascimento dos Dourados", "state": "Maranhão"}, {"id": 2, "clinicId": 7, "planId": 3, "zipcode": "31927296", "address": "Núcleo Marcos Vinicius Jesus", "addressType": "Morro", "addressNumber": 31, "addressComp": "", "neigh": "Vila Novo São Lucas", "city": "Monteiro de Goiás", "state": "Goiás"}, {"id": 3, "clinicId": 16, "planId": 2, "zipcode": "16612237", "address": "Aeroporto de da Luz", "addressType": "Vereda", "addressNumber": 352, "addressComp": "", "neigh": "São Gonçalo", "city": "Caldeira", "state": "Mato Grosso"}, {"id": 4, "clinicId": 20, "planId": 2, "zipcode": "64858848", "address": "Praça Francisco Pires", "addressType": "Área", "addressNumber": 637, "addressComp": "", "neigh": "Silveira", "city": "Alves da Prata", "state": "Rio Grande do Norte"}, {"id": 5, "clinicId": 24, "planId": 1, "zipcode": "88509-488", "address": "Campo de Moreira", "addressType": "Viela", "addressNumber": 691, "addressComp": "", "neigh": "Vila Minaslandia", "city": "Novaes", "state": "Amapá"}, {"id": 6, "clinicId": 26, "planId": 3, "zipcode": "59504-444", "address": "Rodovia Ferreira", "addressType": "Estação", "addressNumber": 984, "addressComp": "", "neigh": "Casa Branca", "city": "Gomes de Nogueira", "state": "Rondônia"}, {"id": 7, "clinicId": 31, "planId": 3, "zipcode": "70649932", "address": "Parque da Mota", "addressType": "Vila", "addressNumber": 518, "addressComp": "", "neigh": "Santa Margarida", "city": "Nogueira de Oliveira", "state": "Bahia"}, {"id": 8, "clinicId": 38, "planId": 3, "zipcode": "54688318", "address": "Distrito Campos", "addressType": "Núcleo", "addressNumber": 953, "addressComp": "", "neigh": "Santa Cecilia", "city": "Pereira do Campo", "state": "Mato Grosso do Sul"}, {"id": 9, "clinicId": 40, "planId": 3, "zipcode": "89429-017", "address": "Aeroporto João Gabriel Porto", "addressType": "Loteamento", "addressNumber": 657, "addressComp": "", "neigh": "Milionario", "city": "Oliveira", "state": "São Paulo"}, {"id": 10, "clinicId": 41, "planId": 2, "zipcode": "73693721", "address": "Parque da Conceição", "addressType": "Lago", "addressNumber": 84, "addressComp": "", "neigh": "Nova Vista", "city": "Ribeiro", "state": "Paraíba"}, {"id": 11, "clinicId": 42, "planId": 3, "zipcode": "94577549", "address": "Alameda de Costa", "addressType": "Praça", "addressNumber": 595, "addressComp": "", "neigh": "Nossa Senhora Da Aparecida", "city": "Lopes", "state": "Roraima"}, {"id": 12, "clinicId": 43, "planId": 2, "zipcode": "52488285", "address": "Via Ferreira", "addressType": "Estação", "addressNumber": 68, "addressComp": "", "neigh": "Ápia", "city": "Monteiro", "state": "Paraíba"}, {"id": 13, "clinicId": 45, "planId": 3, "zipcode": "53154941", "address": "Chácara da Mata", "addressType": "Vereda", "addressNumber": 991, "addressComp": "", "neigh": "Vila Nossa Senhora Do Rosário", "city": "Viana", "state": "Maranhão"}, {"id": 14, "clinicId": 48, "planId": 2, "zipcode": "72964344", "address": "Vale Souza", "addressType": "Colônia", "addressNumber": 244, "addressComp": "", "neigh": "Biquinhas", "city": "Vieira do Amparo", "state": "Mato Grosso"}, {"id": 15, "clinicId": 49, "planId": 1, "zipcode": "74044-803", "address": "Rodovia Enrico Araújo", "addressType": "Chácara", "addressNumber": 876, "addressComp": "", "neigh": "Jardim Guanabara", "city": "Novaes", "state": "Rio de Janeiro"}, {"id": 16, "clinicId": 50, "planId": 2, "zipcode": "41728050", "address": "Campo Melo", "addressType": "Recanto", "addressNumber": 113, "addressComp": "", "neigh": "Miramar", "city": "Castro da Mata", "state": "Rio Grande do Sul"}]